NORAD_CAT_ID,OBJECT_NAME,OBJECT_TYPE,EPOCH,MEAN_MOTION,ECCENTRICITY,INCLINATION,RA_OF_ASC_NODE,ARG_OF_PERICENTER,MEAN_ANOMALY,BSTAR,MEAN_MOTION_DOT,MEAN_MOTION_DDOT,TLE_LINE0,TLE_LINE1,TLE_LINE2,SEMIMAJOR_AXIS,PERIOD,APOGEE,PERIGEE,DECAYED
53723.0,STARLINK-4705,PAYLOAD,2023-06-20 21:02:33,15.08848572,8.97e-05,53.2185,30.9531,98.2473,261.862,6.3194e-06,-1.87e-06,0.0,0 STARLINK-4705,1 53723U 22107Z   23171.87678112 -.00000187  00000-0  63194-5 0  9991,2 53723  53.2185  30.9531 0000897  98.2473 261.8620 15.08848572 44678,6917.854,95.437,540.34,539.099,0.0
53723.0,STARLINK-4705,PAYLOAD,2023-06-21 17:42:34,15.08841288,9.61e-05,53.2176,27.0902,78.2573,281.8527,2.9259e-05,1.78e-06,0.0,0 STARLINK-4705,1 53723U 22107Z   23172.73790388  .00000178  00000-0  29259-4 0  9999,2 53723  53.2176  27.0902 0000961  78.2573 281.8527 15.08841288 44202,6917.876,95.437,540.406,539.077,0.0
53723.0,STARLINK-4705,PAYLOAD,2023-06-21 20:53:20,15.08844074,8.63e-05,53.2178,26.4939,88.6115,271.4976,4.987e-05,5.06e-06,0.0,0 STARLINK-4705,1 53723U 22107Z   23172.87038084  .00000506  00000-0  49870-4 0  9998,2 53723  53.2178  26.4939 0000863  88.6115 271.4976 15.08844074 44822,6917.868,95.437,540.33,539.136,0.0
53723.0,STARLINK-4705,PAYLOAD,2023-06-22 00:04:06,15.08848731,8.28e-05,53.218,25.8987,88.8483,271.2604,1.3692e-05,-7e-07,0.0,0 STARLINK-4705,1 53723U 22107Z   23173.00285823 -.00000070  00000-0  13692-4 0  9999,2 53723  53.2180  25.8987 0000828  88.8483 271.2604 15.08848731 44248,6917.854,95.437,540.292,539.146,0.0
53723.0,STARLINK-4705,PAYLOAD,2023-06-22 19:08:44,15.08840072,9.36e-05,53.218,22.3298,85.8402,274.2697,3.6487e-05,2.93e-06,0.0,0 STARLINK-4705,1 53723U 22107Z   23173.79774290  .00000293  00000-0  36487-4 0  9999,2 53723  53.2180  22.3298 0000936  85.8402 274.2697 15.08840072 44361,6917.88,95.438,540.393,539.098,0.0
53723.0,STARLINK-4705,PAYLOAD,2023-06-22 23:54:53,15.08848732,9.34e-05,53.2185,21.4372,85.8648,274.2451,1.8635e-05,9e-08,0.0,0 STARLINK-4705,1 53723U 22107Z   23173.99645775  .00000009  00000-0  18635-4 0  9996,2 53723  53.2185  21.4372 0000934  85.8648 274.2451 15.08848732 44391,6917.854,95.437,540.365,539.073,0.0
53723.0,STARLINK-4705,PAYLOAD,2023-06-23 18:59:32,15.08839957,9.89e-05,53.2176,17.8701,105.7122,254.398,2.004e-05,3.1e-07,0.0,0 STARLINK-4705,1 53723U 22107Z   23174.79134406  .00000031  00000-0  20040-4 0  9997,2 53723  53.2176  17.8701 0000989 105.7122 254.3980 15.08839957 44514,6917.881,95.438,540.43,539.061,0.0
53723.0,STARLINK-4705,PAYLOAD,2023-06-24 17:14:56,15.08836785,9.28e-05,53.2184,13.7084,98.2061,261.9036,-2.2166e-05,-6.4e-06,0.0,0 STARLINK-4705,1 53723U 22107Z   23175.71870953 -.00000640  00000-0 -22166-4 0  9993,2 53723  53.2184  13.7084 0000928  98.2061 261.9036 15.08836785 44650,6917.89,95.438,540.397,539.113,0.0
53723.0,STARLINK-4705,PAYLOAD,2023-06-25 05:58:01,15.08843404,9.59e-05,53.2185,11.3302,94.63,265.4802,-9.2317e-06,-4.35e-06,0.0,0 STARLINK-4705,1 53723U 22107Z   23176.24862397 -.00000435  00000-0 -92317-5 0  9993,2 53723  53.2185  11.3302 0000959  94.6300 265.4802 15.08843404 44733,6917.87,95.437,540.398,539.072,0.0
53723.0,STARLINK-4705,PAYLOAD,2023-06-25 17:05:43,15.08832983,0.0001067,53.2191,9.2489,107.651,252.4599,2.419e-05,9.7e-07,0.0,0 STARLINK-4705,1 53723U 22107Z   23176.71231201  .00000097  00000-0  24190-4 0  9994,2 53723  53.2191   9.2489 0001067 107.6510 252.4599 15.08832983 44808,6917.902,95.438,540.505,539.029,0.0
53723.0,STARLINK-4705,PAYLOAD,2023-06-26 20:07:16,15.08841615,9.62e-05,53.2183,4.1924,86.3676,273.7426,7.4663e-05,9.01e-06,0.0,0 STARLINK-4705,1 53723U 22107Z   23177.83838923  .00000901  00000-0  74663-4 0  9996,2 53723  53.2183   4.1924 0000962  86.3676 273.7426 15.08841615 44971,6917.875,95.437,540.406,539.075,0.0
53723.0,STARLINK-4705,PAYLOAD,2023-06-28 05:30:22,15.088447,8.05e-05,53.2172,357.9472,91.5667,268.5418,8.1813e-05,1.015e-05,0.0,0 STARLINK-4705,1 53723U 22107Z   23179.22942674  .00001015  00000-0  81813-4 0  9992,2 53723  53.2172 357.9472 0000805  91.5667 268.5418 15.08844700 45185,6917.866,95.437,540.288,539.174,0.0
53723.0,STARLINK-4705,PAYLOAD,2023-06-28 18:13:27,15.08839813,6.28e-05,53.2177,355.5693,69.4877,290.6183,6.9331e-05,8.16e-06,0.0,0 STARLINK-4705,1 53723U 22107Z   23179.75935056  .00000816  00000-0  69331-4 0  9995,2 53723  53.2177 355.5693 0000628  69.4877 290.6183 15.08839813 45262,6917.881,95.438,540.18,539.312,0.0
53723.0,STARLINK-4705,PAYLOAD,2023-06-28 22:59:36,15.08845722,9.76e-05,53.218,354.6765,101.824,258.2861,9.5004e-05,1.225e-05,0.0,0 STARLINK-4705,1 53723U 22107Z   23179.95806562  .00001225  00000-0  95004-4 0  9997,2 53723  53.2180 354.6765 0000976 101.8240 258.2861 15.08845722 45299,6917.863,95.437,540.403,539.053,0.0
53723.0,STARLINK-4705,PAYLOAD,2023-06-29 18:04:15,15.08839324,9.99e-05,53.2184,351.1088,90.3111,269.7996,1.7324e-05,-1.2e-07,0.0,0 STARLINK-4705,1 53723U 22107Z   23180.75295242 -.00000012  00000-0  17324-4 0  9997,2 53723  53.2184 351.1088 0000999  90.3111 269.7996 15.08839324 45418,6917.882,95.438,540.439,539.056,0.0
53723.0,STARLINK-4705,PAYLOAD,2023-06-30 14:44:16,15.0883343,9.59e-05,53.2185,347.2436,82.1662,277.9439,1.3937e-05,-6.6e-07,0.0,0 STARLINK-4705,1 53723U 22107Z   23181.61407742 -.00000066  00000-0  13937-4 0  9998,2 53723  53.2185 347.2436 0000959  82.1662 277.9439 15.08833430 45547,6917.9,95.438,540.429,539.102,0.0
53723.0,STARLINK-4705,PAYLOAD,2023-07-01 17:45:49,15.08839721,9.48e-05,53.2186,342.1886,83.283,276.827,7.8392e-05,9.6e-06,0.0,0 STARLINK-4705,1 53723U 22107Z   23182.74015360  .00000960  00000-0  78392-4 0  9992,2 53723  53.2186 342.1886 0000948  83.2830 276.8270 15.08839721 45717,6917.881,95.438,540.402,539.09,0.0
53723.0,STARLINK-4705,PAYLOAD,2023-07-02 11:15:04,15.08836205,9.73e-05,53.2184,338.9174,81.8887,278.2216,2.9995e-05,1.9e-06,0.0,0 STARLINK-4705,1 53723U 22107Z   23183.46879875  .00000190  00000-0  29995-4 0  9991,2 53723  53.2184 338.9174 0000973  81.8887 278.2216 15.08836205 45824,6917.892,95.438,540.43,539.084,0.0
53723.0,STARLINK-4705,PAYLOAD,2023-07-02 19:11:59,15.08842603,9.63e-05,53.2185,337.4312,88.7028,271.4075,8.2386e-05,1.024e-05,0.0,0 STARLINK-4705,1 53723U 22107Z   23183.79999327  .00001024  00000-0  82386-4 0  9992,2 53723  53.2185 337.4312 0000963  88.7028 271.4075 15.08842603 45877,6917.872,95.437,540.404,539.071,0.0
53723.0,STARLINK-4705,PAYLOAD,2023-07-03 22:13:32,15.08842108,9.51e-05,53.218,332.3756,88.7693,271.3408,0.00019367,2.796e-05,0.0,0 STARLINK-4705,1 53723U 22107Z   23184.92607038  .00002796  00000-0  19367-3 0  9998,2 53723  53.2180 332.3756 0000951  88.7693 271.3408 15.08842108 46042,6917.874,95.437,540.397,539.081,0.0
53723.0,STARLINK-4705,PAYLOAD,2023-07-04 09:21:15,15.08835694,0.0001287,53.2172,330.2921,85.6265,274.4875,5.7284e-05,6.24e-06,0.0,0 STARLINK-4705,1 53723U 22107Z   23185.38975881  .00000624  00000-0  57284-4 0  9992,2 53723  53.2172 330.2921 0001287  85.6265 274.4875 15.08835694 46110,6917.894,95.438,540.649,538.868,0.0
53723.0,STARLINK-4705,PAYLOAD,2023-07-04 18:53:33,15.0884535,9.05e-05,53.2178,328.5093,91.9037,268.2058,5.1365e-05,5.3e-06,0.0,0 STARLINK-4705,1 53723U 22107Z   23185.78719252  .00000530  00000-0  51365-4 0  9994,2 53723  53.2178 328.5093 0000905  91.9037 268.2058 15.08845350 46179,6917.864,95.437,540.355,539.103,0.0
53723.0,STARLINK-4705,PAYLOAD,2023-07-05 02:50:29,15.08836866,9.1e-05,53.2182,327.0222,81.4374,278.6721,2.7529e-06,-2.44e-06,0.0,0 STARLINK-4705,1 53723U 22107Z   23186.11839951 -.00000244  00000-0  27529-5 0  9990,2 53723  53.2182 327.0222 0000910  81.4374 278.6721 15.08836866 46226,6917.89,95.438,540.384,539.125,0.0
53723.0,STARLINK-4705,PAYLOAD,2023-07-06 02:41:16,15.0884425,9.21e-05,53.2183,322.5605,87.7075,272.4022,8.203e-06,-1.57e-06,0.0,0 STARLINK-4705,1 53723U 22107Z   23187.11199574 -.00000157  00000-0  82030-5 0  9992,2 53723  53.2183 322.5605 0000921  87.7075 272.4022 15.08844250 46379,6917.867,95.437,540.37,539.095,0.0
53723.0,STARLINK-4705,PAYLOAD,2023-07-06 18:35:07,15.0885146,0.0001083,53.2181,319.5866,103.5332,256.5781,0.00014689,2.051e-05,0.0,0 STARLINK-4705,1 53723U 22107Z   23187.77438698  .00002051  00000-0  14689-3 0  9994,2 53723  53.2181 319.5866 0001083 103.5332 256.5781 15.08851460 46472,6917.845,95.437,540.46,538.961,0.0
53723.0,STARLINK-4705,PAYLOAD,2023-07-07 08:53:36,15.08840777,0.000146,53.2183,316.9134,84.9989,275.117,0.00012456,1.695e-05,0.0,0 STARLINK-4705,1 53723U 22107Z   23188.37055610  .00001695  00000-0  12456-3 0  9993,2 53723  53.2183 316.9134 0001460  84.9989 275.1170 15.08840777 46560,6917.878,95.438,540.753,538.733,0.0
53723.0,STARLINK-4705,PAYLOAD,2023-07-08 19:52:05,15.08846316,8.61e-05,53.2178,310.3702,83.3673,276.7418,9.6288e-07,-2.72e-06,0.0,0 STARLINK-4705,1 53723U 22107Z   23189.82783844 -.00000272  00000-0  96288-6 0  9990,2 53723  53.2178 310.3702 0000861  83.3673 276.7418 15.08846316 46781,6917.861,95.437,540.322,539.13,0.0
53723.0,STARLINK-4705,PAYLOAD,2023-07-09 11:45:57,15.0883453,8.58e-05,53.2172,307.3962,87.7041,272.405,3.2616e-05,2.31e-06,0.0,0 STARLINK-4705,1 53723U 22107Z   23190.49024603  .00000231  00000-0  32616-4 0  9993,2 53723  53.2172 307.3962 0000858  87.7041 272.4050 15.08834530 46883,6917.897,95.438,540.356,539.169,0.0
53723.0,STARLINK-4705,PAYLOAD,2023-07-09 18:07:29,15.08842432,8.77e-05,53.2172,306.2069,87.0351,273.0742,0.00014193,1.972e-05,0.0,0 STARLINK-4705,1 53723U 22107Z   23190.75520242  .00001972  00000-0  14193-3 0  9994,2 53723  53.2172 306.2069 0000877  87.0351 273.0742 15.08842432 46927,6917.873,95.437,540.345,539.131,0.0
53723.0,STARLINK-4705,PAYLOAD,2023-07-10 06:50:34,15.08835672,9.19e-05,53.2177,303.8273,83.5181,276.5916,0.00017568,2.509e-05,0.0,0 STARLINK-4705,1 53723U 22107Z   23191.28512701  .00002509  00000-0  17568-3 0  9990,2 53723  53.2177 303.8273 0000919  83.5181 276.5916 15.08835672 47000,6917.894,95.438,540.394,539.123,0.0
